1 46435U 97051ABN 24268.58470810  .00042030  00000-0  17403-1 0  9994
2 46435  86.2834  22.3363 0251725 257.5428 113.0867 14.10703090645612
1 46734U 97051ABR 24261.12984091  .00010293  00000-0  34171-2 0  9998
2 46734  86.2705 200.3512 0046435  20.1436  40.5813 14.37069134565123
1 46965U 97051ABX 24277.99396517  .00017866  00000-0  41184-2 0  9991
2 46965  86.3430 172.7181 0022447   4.8718   6.5981 14.55067522559320
1 46974U 97051ACG 24277.76922068  .00024073  00000-0  85697-2 0  9997
2 46974  86.3014 293.0599 0114996 171.0676 189.2602 14.30508408512558
1 46979U 97051ACM 24278.16624336  .00071935  00000-0  15593-1 0  9990
2 46979  86.3519 244.8591 0043238 308.8879  50.8475 14.57164317290307
