OBJECT_NAME,OBJECT_ID,EPOCH,MEAN_MOTION,ECCENTRICITY,INCLINATION,RA_OF_ASC_NODE,ARG_OF_PERICENTER,MEAN_ANOMALY,EPHEMERIS_TYPE,CLASSIFICATION_TYPE,NORAD_CAT_ID,ELEMENT_SET_NO,REV_AT_EPOCH,BSTAR,MEAN_MOTION_DOT,MEAN_MOTION_DDOT
IRIDIUM 33 DEB,1997-051ABN,2024-09-24T14:01:58.779840,14.1070309000,0.0251725000,86.2834000000,22.3363000000,257.5428000000,113.0867000000,0,U,46435,999,64561,0.0174030000,0.0004203000,0E-10
IRIDIUM 33 DEB,1997-051ABR,2024-09-17T03:06:58.254624,14.3706913400,0.0046435000,86.2705000000,200.3512000000,20.1436000000,40.5813000000,0,U,46734,999,56512,0.0034171000,0.0001029300,0E-10
IRIDIUM 33 DEB,1997-051ABX,2024-10-03T23:51:18.590688,14.5506752200,0.0022447000,86.3430000000,172.7181000000,4.8718000000,6.5981000000,0,U,46965,999,55932,0.0041184000,0.0001786600,0E-10
IRIDIUM 33 DEB,1997-051ACG,2024-10-03T18:27:40.666752,14.3050840800,0.0114996000,86.3014000000,293.0599000000,171.0676000000,189.2602000000,0,U,46974,999,51255,0.0085697000,0.0002407300,0E-10
IRIDIUM 33 DEB,1997-051ACM,2024-10-04T03:59:23.426304,14.5716431700,0.0043238000,86.3519000000,244.8591000000,308.8879000000,50.8475000000,0,U,46979,999,29030,0.0155930000,0.0007193500,0E-10
